GPS BIIF-7  (PRN 09)    
1 40105U 14045A   26115.20218808  .00000035  00000+0  00000+0 0  9994
2 40105  55.3192  90.5744 0031645 119.1673 241.1386  2.00554849 85019
GPS BIIF-8  (PRN 03)    
1 40294U 14068A   26115.07628714 -.00000092  00000+0  00000+0 0  9998
2 40294  56.9533  33.0012 0065217  68.8236 291.8757  2.00572899 84143
GPS BIIF-9  (PRN 26)    
1 40534U 15013A   26115.70924992 -.00000039  00000+0  00000+0 0  9994
2 40534  53.1744 206.3479 0108874  39.9788 320.8435  2.00554458 80775
GPS BIIF-10 (PRN 08)    
1 40730U 15033A   26115.37018511 -.00000039  00000+0  00000+0 0  9998
2 40730  54.0255 269.2625 0115006  29.8840 330.7367  2.00558940 78932
GPS BIIF-11 (PRN 10)    
1 41019U 15062A   26114.92947431 -.00000091  00000+0  00000+0 0  9991
2 41019  56.9258  32.8632 0111251 231.5279 127.4763  2.00566987 76765
GPS BIIF-12 (PRN 32)    
1 41328U 16007A   26115.01720695  .00000037  00000+0  00000+0 0  9995
2 41328  55.4917  91.5661 0096117 247.0721 111.9007  2.00554180 74775
GPS BIII-1  (PRN 04)    
1 43873U 18109A   26116.40139615  .00000039  00000+0  00000+0 0  9999
2 43873  55.6514  94.2279 0037899 198.8751 333.4999  2.00559161 54032
GPS BIII-2  (PRN 18)    
1 44506U 19056A   26115.04060867 -.00000078  00000+0  00000+0 0  9990
2 44506  55.6607 333.2545 0059535 197.4739 334.4796  2.00569009 49002
GPS BIII-3  (PRN 23)    
1 45854U 20041A   26115.09615082 -.00000095  00000+0  00000+0 0  9992
2 45854  56.6375  31.0034 0062163 205.0676 307.4587  2.00559675 42970
GPS BIII-4  (PRN 14)    
1 46826U 20078A   26112.92753654 -.00000017  00000+0  00000+0 0  9993
2 46826  53.9891 213.0193 0070939 205.6597 155.6852  2.00564823 40404
GPS BIII-5  (PRN 11)    
1 48859U 21054A   26116.36989757 -.00000083  00000+0  00000+0 0  9996
2 48859  55.1971 334.5423 0024043 229.9230 282.5639  2.00572310 35719
GPS BIII-6  (PRN 28)    
1 55268U 23009A   26114.11794736  .00000038  00000+0  00000+0 0  9991
2 55268  55.1140 150.6438 0005563 314.9389  49.0235  2.00575001 24163
GPS BIII-7  (PRN 01)    
1 62339U 24242A   26116.23725212 -.00000085  00000+0  00000+0 0  9999
2 62339  54.8705 336.2872 0016833   0.5482 176.6522  2.00570556 10218
GPS BIII-8  (PRN 21)    
1 64202U 25116A   26113.24280751 -.00000081  00000+0  00000+0 0  9999
2 64202  55.1985  33.3417 0009124 335.2523  22.0569  2.00549673  6768
GPS BIII-9  (PRN 20)    
1 67588U 26017A   26110.36440864  .00000023  00000+0  00000+0 0  9998
2 67588  55.0497  91.0746 0024611 254.1378 105.5744  2.00572232430452
GPS BIII-10             
1 68791U 26087A   26112.34150053  .00002417  00000+0  19778-2 0  9994
2 68791  54.9968 210.8716 5942075 270.2176  26.1146  4.03281331    56
